NORAD_CAT_ID,OBJECT_NAME,OBJECT_TYPE,EPOCH,MEAN_MOTION,ECCENTRICITY,INCLINATION,RA_OF_ASC_NODE,ARG_OF_PERICENTER,MEAN_ANOMALY,BSTAR,MEAN_MOTION_DOT,MEAN_MOTION_DDOT,TLE_LINE0,TLE_LINE1,TLE_LINE2,SEMIMAJOR_AXIS,PERIOD,APOGEE,PERIGEE,DECAYED
51132.0,STARLINK-3393,PAYLOAD,2023-08-29 19:39:53,15.08836046,0.0001626,53.2176,122.0463,82.0751,278.0426,2.6345e-05,1.31e-06,0.0,0 STARLINK-3393,1 51132U 22005AE  23241.81937286  .00000131  00000-0  26345-4 0  9996,2 51132  53.2176 122.0463 0001626  82.0751 278.0426 15.08836046 89405,6917.892,95.438,540.882,538.633,0.0
51132.0,STARLINK-3393,PAYLOAD,2023-08-30 02:01:26,15.08837905,0.0001626,53.2176,120.8572,80.1565,279.961,3.6896e-05,2.99e-06,0.0,0 STARLINK-3393,1 51132U 22005AE  23242.08433166  .00000299  00000-0  36896-4 0  9991,2 51132  53.2176 120.8572 0001626  80.1565 279.9610 15.08837905 90563,6917.887,95.438,540.877,538.627,0.0
51132.0,STARLINK-3393,PAYLOAD,2023-08-30 22:41:26,15.08840028,0.0001391,53.2179,116.9926,96.6613,263.4537,8.5682e-05,1.076e-05,0.0,0 STARLINK-3393,1 51132U 22005AE  23242.94544900  .00001076  00000-0  85682-4 0  9996,2 51132  53.2179 116.9926 0001391  96.6613 263.4537 15.08840028 89575,6917.88,95.438,540.708,538.783,0.0
51132.0,STARLINK-3393,PAYLOAD,2023-09-01 00:07:37,15.08838576,0.0001296,53.2176,112.2354,89.9962,270.1178,5.836e-05,6.41e-06,0.0,0 STARLINK-3393,1 51132U 22005AE  23244.00529309  .00000641  00000-0  58360-4 0  9991,2 51132  53.2176 112.2354 0001296  89.9962 270.1178 15.08838576 90856,6917.885,95.438,540.646,538.853,0.0
51132.0,STARLINK-3393,PAYLOAD,2023-09-01 08:04:33,15.0883803,0.0001305,53.2177,110.7485,89.6516,270.4625,4.6895e-05,4.58e-06,0.0,0 STARLINK-3393,1 51132U 22005AE  23244.33649460  .00000458  00000-0  46895-4 0  9994,2 51132  53.2177 110.7485 0001305  89.6516 270.4625 15.08838030 89783,6917.886,95.438,540.654,538.849,0.0
51132.0,STARLINK-3393,PAYLOAD,2023-09-02 01:33:47,15.08844134,0.0001374,53.2177,107.4768,88.6455,271.4694,0.00012758,1.743e-05,0.0,0 STARLINK-3393,1 51132U 22005AE  23245.06512902  .00001743  00000-0  12758-3 0  9993,2 51132  53.2177 107.4768 0001374  88.6455 271.4694 15.08844134 91015,6917.868,95.437,540.683,538.782,0.0
51132.0,STARLINK-3393,PAYLOAD,2023-09-02 07:55:20,15.08840036,0.0001629,53.2182,106.2871,82.3929,277.7248,8.9086e-05,1.13e-05,0.0,0 STARLINK-3393,1 51132U 22005AE  23245.33009426  .00001130  00000-0  89086-4 0  9994,2 51132  53.2182 106.2871 0001629  82.3929 277.7248 15.08840036 91058,6917.88,95.438,540.872,538.618,0.0
51132.0,STARLINK-3393,PAYLOAD,2023-09-02 19:03:02,15.08838413,0.0001708,53.2182,104.2054,83.4943,276.6244,7.8367e-05,9.59e-06,0.0,0 STARLINK-3393,1 51132U 22005AE  23245.79377662  .00000959  00000-0  78367-4 0  9992,2 51132  53.2182 104.2054 0001708  83.4943 276.6244 15.08838413 90009,6917.885,95.438,540.932,538.569,0.0
51132.0,STARLINK-3393,PAYLOAD,2023-09-02 23:49:11,15.08835679,0.0001589,53.2173,103.3136,82.7808,277.3364,5.1267e-05,5.28e-06,0.0,0 STARLINK-3393,1 51132U 22005AE  23245.99249856  .00000528  00000-0  51267-4 0  9999,2 51132  53.2173 103.3136 0001589  82.7808 277.3364 15.08835679 91158,6917.894,95.438,540.858,538.659,0.0
51132.0,STARLINK-3393,PAYLOAD,2023-09-03 07:46:07,15.0883775,0.0001692,53.2159,101.8278,83.6405,276.478,0.00010179,1.332e-05,0.0,0 STARLINK-3393,1 51132U 22005AE  23246.32369788  .00001332  00000-0  10179-3 0  9994,2 51132  53.2159 101.8278 0001692  83.6405 276.4780 15.08837750 90085,6917.887,95.438,540.923,538.582,0.0
51132.0,STARLINK-3393,PAYLOAD,2023-09-03 18:53:49,15.08845552,0.0001696,53.2163,99.7466,85.0714,275.0472,1.0187e-06,-2.72e-06,0.0,0 STARLINK-3393,1 51132U 22005AE  23246.78737444 -.00000272  00000-0  10187-5 0  9996,2 51132  53.2163  99.7466 0001696  85.0714 275.0472 15.08845552 91271,6917.863,95.437,540.902,538.555,0.0
51132.0,STARLINK-3393,PAYLOAD,2023-09-04 07:36:54,15.08845205,0.000147,53.2168,97.3677,85.1343,274.9817,1.6078e-05,-3.2e-07,0.0,0 STARLINK-3393,1 51132U 22005AE  23247.31729430 -.00000032  00000-0  16078-4 0  9990,2 51132  53.2168  97.3677 0001470  85.1343 274.9817 15.08845205 90234,6917.864,95.437,540.746,538.713,0.0
51132.0,STARLINK-3393,PAYLOAD,2023-09-04 23:30:45,15.08839706,0.0001404,53.2172,94.3933,86.8327,273.2826,6.5129e-05,7.49e-06,0.0,0 STARLINK-3393,1 51132U 22005AE  23247.97969734  .00000749  00000-0  65129-4 0  9990,2 51132  53.2172  94.3933 0001404  86.8327 273.2826 15.08839706 91454,6917.881,95.438,540.718,538.775,0.0
51132.0,STARLINK-3393,PAYLOAD,2023-09-05 13:49:14,15.08829093,0.0001467,53.2174,91.7166,90.7203,269.3957,0.000192,2.768e-05,0.0,0 STARLINK-3393,1 51132U 22005AE  23248.57586155  .00002768  00000-0  19200-3 0  9990,2 51132  53.2174  91.7166 0001467  90.7203 269.3957 15.08829093 90426,6917.914,95.438,540.794,538.764,0.0
51132.0,STARLINK-3393,PAYLOAD,2023-09-05 23:21:32,15.08843702,0.000145,53.2172,89.9326,89.0884,271.0274,7.208e-05,8.59e-06,0.0,0 STARLINK-3393,1 51132U 22005AE  23248.97329484  .00000859  00000-0  72080-4 0  9999,2 51132  53.2172  89.9326 0001450  89.0884 271.0274 15.08843702 90480,6917.869,95.437,540.737,538.731,0.0
51132.0,STARLINK-3393,PAYLOAD,2023-09-06 20:01:33,15.08845081,0.0001434,53.2169,86.067,88.6579,271.4577,0.00010996,1.463e-05,0.0,0 STARLINK-3393,1 51132U 22005AE  23249.83441266  .00001463  00000-0  10996-3 0  9997,2 51132  53.2169  86.0670 0001434  88.6579 271.4577 15.08845081 90611,6917.865,95.437,540.722,538.738,0.0
51132.0,STARLINK-3393,PAYLOAD,2023-09-06 23:12:19,15.08846638,0.0001397,53.217,85.4719,87.4638,272.6514,9.5444e-05,1.232e-05,0.0,0 STARLINK-3393,1 51132U 22005AE  23249.96689168  .00001232  00000-0  95444-4 0  9992,2 51132  53.2170  85.4719 0001397  87.4638 272.6514 15.08846638 91750,6917.86,95.437,540.692,538.759,0.0
51132.0,STARLINK-3393,PAYLOAD,2023-09-07 05:33:52,15.08840889,0.0001335,53.2167,84.282,85.7781,274.3364,4.1954e-05,3.8e-06,0.0,0 STARLINK-3393,1 51132U 22005AE  23250.23185633  .00000380  00000-0  41954-4 0  9992,2 51132  53.2167  84.2820 0001335  85.7781 274.3364 15.08840889 91796,6917.878,95.437,540.666,538.819,0.0
51132.0,STARLINK-3393,PAYLOAD,2023-09-07 11:55:25,15.08837149,0.000159,53.2164,83.0929,89.2563,270.8611,4.2362e-05,3.86e-06,0.0,0 STARLINK-3393,1 51132U 22005AE  23250.49681978  .00000386  00000-0  42362-4 0  9993,2 51132  53.2164  83.0929 0001590  89.2563 270.8611 15.08837149 90712,6917.889,95.438,540.854,538.654,0.0
51132.0,STARLINK-3393,PAYLOAD,2023-09-07 21:27:44,15.08839321,0.0001579,53.217,81.3087,88.032,272.0853,1.8868e-05,1.2e-07,0.0,0 STARLINK-3393,1 51132U 22005AE  23250.89425983  .00000012  00000-0  18868-4 0  9999,2 51132  53.2170  81.3087 0001579  88.0320 272.0853 15.08839321 90772,6917.882,95.438,540.84,538.655,0.0
51132.0,STARLINK-3393,PAYLOAD,2023-09-08 19:43:07,15.08838507,0.0001158,53.217,77.147,95.7437,264.3687,2.6393e-05,1.32e-06,0.0,0 STARLINK-3393,1 51132U 22005AE  23251.82162010  .00000132  00000-0  26393-4 0  9997,2 51132  53.2170  77.1470 0001158  95.7437 264.3687 15.08838507 92033,6917.885,95.438,540.551,538.949,0.0
51132.0,STARLINK-3393,PAYLOAD,2023-09-08 21:18:30,15.08843967,0.0001256,53.2181,76.8492,91.421,268.6926,9.5285e-06,-1.36e-06,0.0,0 STARLINK-3393,1 51132U 22005AE  23251.88785778 -.00000136  00000-0  95285-5 0  9997,2 51132  53.2181  76.8492 0001256  91.4210 268.6926 15.08843967 90921,6917.868,95.437,540.602,538.864,0.0
51132.0,STARLINK-3393,PAYLOAD,2023-09-09 11:36:59,15.08832435,0.000126,53.2184,74.1727,96.7091,263.4045,7.4781e-05,9.02e-06,0.0,0 STARLINK-3393,1 51132U 22005AE  23252.48402481  .00000902  00000-0  74781-4 0  9998,2 51132  53.2184  74.1727 0001260  96.7091 263.4045 15.08832435 91010,6917.904,95.438,540.64,538.897,0.0
51132.0,STARLINK-3393,PAYLOAD,2023-09-10 11:27:46,15.08836272,0.0001341,53.2185,69.7126,94.1059,266.0087,0.00016151,2.283e-05,0.0,0 STARLINK-3393,1 51132U 22005AE  23253.47762136  .00002283  00000-0  16151-3 0  9994,2 51132  53.2185  69.7126 0001341  94.1059 266.0087 15.08836272 91164,6917.892,95.438,540.684,538.829,0.0
51132.0,STARLINK-3393,PAYLOAD,2023-09-10 17:49:19,15.08835128,0.0001283,53.2186,68.5235,91.0612,269.0527,0.00019568,2.827e-05,0.0,0 STARLINK-3393,1 51132U 22005AE  23253.74258213  .00002827  00000-0  19568-3 0  9999,2 51132  53.2186  68.5235 0001283  91.0612 269.0527 15.08835128 92329,6917.895,95.438,540.648,538.873,0.0
51132.0,STARLINK-3393,PAYLOAD,2023-09-11 04:57:00,15.08846374,0.0001334,53.2186,66.4416,85.2713,274.8431,1.9088e-05,1.6e-07,0.0,0 STARLINK-3393,1 51132U 22005AE  23254.20625977  .00000016  00000-0  19088-4 0  9992,2 51132  53.2186  66.4416 0001334  85.2713 274.8431 15.08846374 91277,6917.861,95.437,540.649,538.803,0.0
51132.0,STARLINK-3393,PAYLOAD,2023-09-11 20:50:51,15.08848872,0.0001299,53.2185,63.4673,87.716,272.3981,9.6735e-05,1.252e-05,0.0,0 STARLINK-3393,1 51132U 22005AE  23254.86865676  .00001252  00000-0  96735-4 0  9993,2 51132  53.2185  63.4673 0001299  87.7160 272.3981 15.08848872 92494,6917.853,95.437,540.617,538.82,0.0
51132.0,STARLINK-3393,PAYLOAD,2023-09-12 04:47:47,15.08842369,0.0001225,53.2183,61.98,93.4307,266.6825,7.2063e-05,8.59e-06,0.0,0 STARLINK-3393,1 51132U 22005AE  23255.19986089  .00000859  00000-0  72063-4 0  9992,2 51132  53.2183  61.9800 0001225  93.4307 266.6825 15.08842369 92547,6917.873,95.437,540.586,538.891,0.0
51132.0,STARLINK-3393,PAYLOAD,2023-09-12 19:06:16,15.08844571,0.0001461,53.2187,59.3014,110.8774,249.2374,3.5478e-05,2.77e-06,0.0,0 STARLINK-3393,1 51132U 22005AE  23255.79602027  .00000277  00000-0  35478-4 0  9998,2 51132  53.2187  59.3014 0001461 110.8774 249.2374 15.08844571 91512,6917.866,95.437,540.742,538.721,0.0
51132.0,STARLINK-3393,PAYLOAD,2023-09-13 11:00:07,15.08846851,0.000147,53.2182,56.3297,93.7075,266.4085,0.00011125,1.483e-05,0.0,0 STARLINK-3393,1 51132U 22005AE  23256.45841695  .00001483  00000-0  11125-3 0  9990,2 51132  53.2182  56.3297 0001470  93.7075 266.4085 15.08846851 91614,6917.859,95.437,540.741,538.708,0.0
